STARLINK-30455          
1 57942U 23148H   26068.20602072 -.00000766  00000+0 -13747-4 0  9992
2 57942  53.1624  26.7281 0001175  82.8128 277.3006 15.30188282138341
NUSAT-48 (HENRIETTA LE*)
1 60498U 24149AG  26068.80506098  .00012988  00000+0  45212-3 0  9999
2 60498  97.3923 150.8264 0002754 263.3026  96.7901 15.29812597 86946
